CTC1_L_00417016-03
1 65266U 22232QW  26037.47805556  .00000000  00000+0  00000-0 0  9993
2 65266  85.0000 180.0000 0000000   0.0000   0.0000 12.77881336    16
CTC1_L_00417016-04
1 65267U 22868KU  26037.47805556  .00000000  00000+0  00000-0 0  9999
2 65267  85.0000 180.0000 0000000   0.0000  90.0000 12.77881336    16
CTC1_L_00417017-01
1 65268U 22774GG  26037.47805556  .00000000  00000+0  00000-0 0  9996
2 65268  85.0000 192.0000 0000000   0.0000 192.0000 12.77881336    13
CTC1_L_00417017-02
1 65269U 25059FK  26037.47805556  .00000000  00000+0  00000-0 0  9996
2 65269  85.0000 192.0000 0000000   0.0000 282.0000 12.77881336    14
CTC1_L_00417017-03
1 65270U 24954ZJ  26037.47805556  .00000000  00000+0  00000-0 0  9991
2 65270  85.0000 192.0000 0000000   0.0000  12.0000 12.77881336    17
CTC1_L_00417017-04
1 65271U 25299PX  26037.47805556  .00000000  00000+0  00000-0 0  9995
2 65271  85.0000 192.0000 0000000   0.0000 102.0000 12.77881336    18
CTC1_L_00417018-01
1 65272U 22081ID  26037.47805556  .00000000  00000+0  00000-0 0  9992
2 65272  85.0000 204.0000 0000000   0.0000 204.0000 12.77881336    16
CTC1_L_00417018-02
1 65273U 22576LV  26037.47805556  .00000000  00000+0  00000-0 0  9992
2 65273  85.0000 204.0000 0000000   0.0000 294.0000 12.77881336    16
CTC1_L_00417018-03
1 65274U 24722XI  26037.47805556  .00000000  00000+0  00000-0 0  9998
2 65274  85.0000 204.0000 0000000   0.0000  24.0000 12.77881336    18
CTC1_L_00417018-04
1 65275U 26052WS  26037.47805556  .00000000  00000+0  00000-0 0  9997
2 65275  85.0000 204.0000 0000000   0.0000 114.0000 12.77881336    19
CTC1_L_00417019-01
1 65276U 23018DI  26037.47805556  .00000000  00000+0  00000-0 0  9997
2 65276  85.0000 216.0000 0000000   0.0000 216.0000 12.77881336    16
CTC1_L_00417019-02
1 65277U 25365AO  26037.47805556  .00000000  00000+0  00000-0 0  9995
2 65277  85.0000 216.0000 0000000   0.0000 306.0000 12.77881336    17
CTC1_L_00417019-03
1 65278U 25558XN  26037.47805556  .00000000  00000+0  00000-0 0  9990
2 65278  85.0000 216.0000 0000000   0.0000  36.0000 12.77881336    18
CTC1_L_00417019-04
1 65279U 24039GC  26037.47805556  .00000000  00000+0  00000-0 0  9994
2 65279  85.0000 216.0000 0000000   0.0000 126.0000 12.77881336    19
CTC1_L_00417020-01
1 65280U 25343KC  26037.47805556  .00000000  00000+0  00000-0 0  9995
2 65280  85.0000 228.0000 0000000   0.0000 228.0000 12.77881336    17
CTC1_L_00417020-02
1 65281U 22008SF  26037.47805556  .00000000  00000+0  00000-0 0  9991
2 65281  85.0000 228.0000 0000000   0.0000 318.0000 12.77881336    18
CTC1_L_00417020-03
1 65282U 26469TO  26037.47805556  .00000000  00000+0  00000-0 0  9997
2 65282  85.0000 228.0000 0000000   0.0000  48.0000 12.77881336    19
CTC1_L_00417020-04
1 65283U 26895UO  26037.47805556  .00000000  00000+0  00000-0 0  9991
2 65283  85.0000 228.0000 0000000   0.0000 138.0000 12.77881336    10
CTC1_L_00417021-01
1 65284U 23620YG  26037.47805556  .00000000  00000+0  00000-0 0  9995
2 65284  85.0000 240.0000 0000000   0.0000 240.0000 12.77881336    19
CTC1_L_00417021-02
1 65285U 26967XX  26037.47805556  .00000000  00000+0  00000-0 0  9993
2 65285  85.0000 240.0000 0000000   0.0000 330.0000 12.77881336    10
CTC1_L_00417021-03
1 65286U 23278SP  26037.47805556  .00000000  00000+0  00000-0 0  9996
2 65286  85.0000 240.0000 0000000   0.0000  60.0000 12.77881336    11
CTC1_L_00417021-04
1 65287U 23595JG  26037.47805556  .00000000  00000+0  00000-0 0  9999
2 65287  85.0000 240.0000 0000000   0.0000 150.0000 12.77881336    12
CTC1_L_00417022-01
1 65288U 25631WO  26037.47805556  .00000000  00000+0  00000-0 0  9993
2 65288  85.0000 252.0000 0000000   0.0000 252.0000 12.77881336    19
CTC1_L_00417022-02
1 65289U 24253VD  26037.47805556  .00000000  00000+0  00000-0 0  9993
2 65289  85.0000 252.0000 0000000   0.0000 342.0000 12.77881336    10
CTC1_L_00417022-03
1 65290U 22580IL  26037.47805556  .00000000  00000+0  00000-0 0  9996
2 65290  85.0000 252.0000 0000000   0.0000  72.0000 12.77881336    12
CTC1_L_00417022-04
1 65291U 25620AB  26037.47805556  .00000000  00000+0  00000-0 0  9995
2 65291  85.0000 252.0000 0000000   0.0000 162.0000 12.77881336    13
CTC1_L_00417023-01
1 65292U 22574FD  26037.47805556  .00000000  00000+0  00000-0 0  9991
2 65292  85.0000 264.0000 0000000   0.0000 264.0000 12.77881336    10
CTC1_L_00417023-02
1 65293U 24363FN  26037.47805556  .00000000  00000+0  00000-0 0  9990
2 65293  85.0000 264.0000 0000000   0.0000 354.0000 12.77881336    11
CTC1_L_00417023-03
1 65294U 24708DL  26037.47805556  .00000000  00000+0  00000-0 0  9994
2 65294  85.0000 264.0000 0000000   0.0000  84.0000 12.77881336    12
CTC1_L_00417023-04
1 65295U 26722OR  26037.47805556  .00000000  00000+0  00000-0 0  9993
2 65295  85.0000 264.0000 0000000   0.0000 174.0000 12.77881336    13
CTC1_L_00417024-01
1 65296U 25532BO  26037.47805556  .00000000  00000+0  00000-0 0  9992
2 65296  85.0000 276.0000 0000000   0.0000 276.0000 12.77881336    10
CTC1_L_00417024-02
1 65297U 22523GM  26037.47805556  .00000000  00000+0  00000-0 0  9990
2 65297  85.0000 276.0000 0000000   0.0000   6.0000 12.77881336    12
CTC1_L_00417024-03
1 65298U 22801MH  26037.47805556  .00000000  00000+0  00000-0 0  9990
2 65298  85.0000 276.0000 0000000   0.0000  96.0000 12.77881336    12
CTC1_L_00417024-04
1 65299U 26090NK  26037.47805556  .00000000  00000+0  00000-0 0  9995
2 65299  85.0000 276.0000 0000000   0.0000 186.0000 12.77881336    13
CTC1_L_00417025-01
1 65300U 24629HF  26037.47805556  .00000000  00000+0  00000-0 0  9994
2 65300  85.0000 288.0000 0000000   0.0000 288.0000 12.77881336    12
CTC1_L_00417025-02
1 65301U 25931IZ  26037.47805556  .00000000  00000+0  00000-0 0  9992
2 65301  85.0000 288.0000 0000000   0.0000  18.0000 12.77881336    14
CTC1_L_00417025-03
1 65302U 26134JT  26037.47805556  .00000000  00000+0  00000-0 0  9999
2 65302  85.0000 288.0000 0000000   0.0000 108.0000 12.77881336    15
CTC1_L_00417025-04
1 65303U 24591PQ  26037.47805556  .00000000  00000+0  00000-0 0  9995
2 65303  85.0000 288.0000 0000000   0.0000 198.0000 12.77881336    15
CTC1_L_00417026-01
1 65304U 26784XL  26037.47805556  .00000000  00000+0  00000-0 0  9992
2 65304  85.0000 300.0000 0000000   0.0000 300.0000 12.77881336    16
CTC1_L_00417026-02
1 65305U 24494ZU  26037.47805556  .00000000  00000+0  00000-0 0  9999
2 65305  85.0000 300.0000 0000000   0.0000  30.0000 12.77881336    17
CTC1_L_00417026-03
1 65306U 25499JH  26037.47805556  .00000000  00000+0  00000-0 0  9996
2 65306  85.0000 300.0000 0000000   0.0000 120.0000 12.77881336    18
CTC1_L_00417026-04
1 65307U 24254LG  26037.47805556  .00000000  00000+0  00000-0 0  9995
2 65307  85.0000 300.0000 0000000   0.0000 210.0000 12.77881336    19
CTC1_L_00417027-01
1 65308U 23004PM  26037.47805556  .00000000  00000+0  00000-0 0  9998
2 65308  85.0000 312.0000 0000000   0.0000 312.0000 12.77881336    16
CTC1_L_00417027-02
1 65309U 26528YW  26037.47805556  .00000000  00000+0  00000-0 0  9993
2 65309  85.0000 312.0000 0000000   0.0000  42.0000 12.77881336    17
CTC1_L_00417027-03
1 65310U 25801QA  26037.47805556  .00000000  00000+0  00000-0 0  9998
2 65310  85.0000 312.0000 0000000   0.0000 132.0000 12.77881336    19
CTC1_L_00417027-04
1 65311U 23914FT  26037.47805556  .00000000  00000+0  00000-0 0  9992
2 65311  85.0000 312.0000 0000000   0.0000 222.0000 12.77881336    10
CTC1_L_00417028-01
1 65312U 23168VE  26037.47805556  .00000000  00000+0  00000-0 0  9994
2 65312  85.0000 324.0000 0000000   0.0000 324.0000 12.77881336    17
CTC1_L_00417028-02
1 65313U 23487PG  26037.47805556  .00000000  00000+0  00000-0 0  9999
2 65313  85.0000 324.0000 0000000   0.0000  54.0000 12.77881336    18
CTC1_L_00417028-03
1 65314U 26520FR  26037.47805556  .00000000  00000+0  00000-0 0  9991
2 65314  85.0000 324.0000 0000000   0.0000 144.0000 12.77881336    19
CTC1_L_00417028-04
1 65315U 22345KW  26037.47805556  .00000000  00000+0  00000-0 0  9993
2 65315  85.0000 324.0000 0000000   0.0000 234.0000 12.77881336    10
CTC1_L_00417029-01
1 65316U 23773BA  26037.47805556  .00000000  00000+0  00000-0 0  9990
2 65316  85.0000 336.0000 0000000   0.0000 336.0000 12.77881336    17
CTC1_L_00417029-02
1 65317U 25361GC  26037.47805556  .00000000  00000+0  00000-0 0  9996
2 65317  85.0000 336.0000 0000000   0.0000  66.0000 12.77881336    18
CTC1_L_00417029-03
1 65318U 26722HA  26037.47805556  .00000000  00000+0  00000-0 0  9999
2 65318  85.0000 336.0000 0000000   0.0000 156.0000 12.77881336    19
CTC1_L_00417029-04
1 65319U 24437KP  26037.47805556  .00000000  00000+0  00000-0 0  9991
2 65319  85.0000 336.0000 0000000   0.0000 246.0000 12.77881336    10
CTC1_L_00417030-01
1 65320U 24316PS  26037.47805556  .00000000  00000+0  00000-0 0  9999
2 65320  85.0000 348.0000 0000000   0.0000 348.0000 12.77881336    18
CTC1_L_00417030-02
1 65321U 26598DH  26037.47805556  .00000000  00000+0  00000-0 0  9994
2 65321  85.0000 348.0000 0000000   0.0000  78.0000 12.77881336    19
CTC1_L_00417030-03
1 65322U 25293HR  26037.47805556  .00000000  00000+0  00000-0 0  9996
2 65322  85.0000 348.0000 0000000   0.0000 168.0000 12.77881336    10
CTC1_L_00417030-04
1 65323U 24432IL  26037.47805556  .00000000  00000+0  00000-0 0  9991
2 65323  85.0000 348.0000 0000000   0.0000 258.0000 12.77881336    11
